IRIDIUM 166             
1 43570U 18061B   24155.14400931 -.00000051  00000+0 -25127-4 0  9992
2 43570  86.3978   7.6826 0001865  93.8286 266.3123 14.34217458306750
IRIDIUM 158             
1 43571U 18061C   24155.11231239  .00000439  00000+0  14981-3 0  9996
2 43571  86.3971   7.7093 0005400  49.8885 310.2783 14.34219615306721
IRIDIUM 165             
1 43572U 18061D   24155.13766352  .00000363  00000+0  12247-3 0  9997
2 43572  86.3985   7.7268 0002253  90.9409 269.2045 14.34218742306749
IRIDIUM 155             
1 43573U 18061E   24155.09960985  .00000194  00000+0  62126-4 0  9995
2 43573  86.3980   7.6487 0001891  91.2153 268.9259 14.34219199306711
IRIDIUM 154             
1 43574U 18061F   24154.59220551 -.00000223  00000+0 -86611-4 0  9998
2 43574  86.3979   7.9574 0002224  83.5858 276.5591 14.34215811306684
IRIDIUM 163             
1 43575U 18061G   24155.13132523  .00000032  00000+0  42783-5 0  9990
2 43575  86.3983   7.6712 0002142  89.3177 270.8264 14.34215307306738
IRIDIUM 156             
1 43576U 18061H   24155.10595397  .00000075  00000+0  19555-4 0  9997
2 43576  86.3982   7.6879 0002161  93.0554 267.0889 14.34218009306715
IRIDIUM 164             
1 43577U 18061J   24154.52877904  .00000026  00000+0  23556-5 0  9993
2 43577  86.3988   7.9578 0002503  93.3016 266.8466 14.34217138306683
